{
    "links": {
        "self": "http://www.neowsapp.com/rest/v1/neo/3802583?api_key=iIulBulltgU6a56xZRHN4H3l9WmuAYTsLGpBGhQ2"
    },
    "id": "3802583",
    "neo_reference_id": "3802583",
    "name": "(2018 GH4)",
    "designation": "2018 GH4",
    "nasa_jpl_url": "http://ssd.jpl.nasa.gov/sbdb.cgi?sstr=3802583",
    "absolute_magnitude_h": 23.5,
    "estimated_diameter": {
        "kilometers": {
            "estimated_diameter_min": 0.0530340723,
            "estimated_diameter_max": 0.1185877909
        },
        "meters": {
            "estimated_diameter_min": 53.0340723319,
            "estimated_diameter_max": 118.5877908577
        },
        "miles": {
            "estimated_diameter_min": 0.0329538346,
            "estimated_diameter_max": 0.0736870142
        },
        "feet": {
            "estimated_diameter_min": 173.9963058693,
            "estimated_diameter_max": 389.0675677576
        }
    },
    "is_potentially_hazardous_asteroid": false,
    "close_approach_data": [
        {
            "close_approach_date": "2017-11-16",
            "close_approach_date_full": "2017-Nov-16 19:52",
            "epoch_date_close_approach": 1510861920000,
            "relative_velocity": {
                "kilometers_per_second": "10.989309536",
                "kilometers_per_hour": "39561.5143294578",
                "miles_per_hour": "24581.98650099"
            },
            "miss_distance": {
                "astronomical": "0.2118096117",
                "lunar": "82.3939389513",
                "kilometers": "31686266.755847079",
                "miles": "19688933.1741205302"
            },
            "orbiting_body": "Earth"
        },
        {
            "close_approach_date": "2018-04-01",
            "close_approach_date_full": "2018-Apr-01 11:29",
            "epoch_date_close_approach": 1522582140000,
            "relative_velocity": {
                "kilometers_per_second": "9.4460909168",
                "kilometers_per_hour": "34005.9273003784",
                "miles_per_hour": "21129.9607717268"
            },
            "miss_distance": {
                "astronomical": "0.2129589429",
                "lunar": "82.8410287881",
                "kilometers": "31858204.255291623",
                "miles": "19795770.1821774774"
            },
            "orbiting_body": "Earth"
        }
    ],
    "orbital_data": {
        "orbit_id": "4",
        "orbit_determination_date": "2018-04-23 07:30:57",
        "first_observation_date": "2018-04-13",
        "last_observation_date": "2018-04-23",
        "data_arc_in_days": 10,
        "observations_used": 22,
        "orbit_uncertainty": "8",
        "minimum_orbit_intersection": ".169577",
        "jupiter_tisserand_invariant": "4.708",
        "epoch_osculation": "2458223.5",
        "eccentricity": ".2900963500554273",
        "semi_major_axis": "1.381148142140441",
        "inclination": "17.55719704125293",
        "ascending_node_longitude": "207.7536553819021",
        "orbital_period": "592.8691088200615",
        "perihelion_distance": ".9804821072196649",
        "perihelion_argument": "274.7575441789256",
        "aphelion_distance": "1.781814177061218",
        "perihelion_time": "2458136.949630143763",
        "mean_anomaly": "52.55482649493543",
        "mean_motion": ".6072166598736749",
        "equinox": "J2000",
        "orbit_class": {
            "orbit_class_type": "APO",
            "orbit_class_description": "Near-Earth asteroid orbits which cross the Earth’s orbit similar to that of 1862 Apollo",
            "orbit_class_range": "a (semi-major axis) > 1.0 AU; q (perihelion) < 1.017 AU"
        }
    },
    "is_sentry_object": false
}